{
"type": "FeatureCollection",
"name": "tour1",
"crs": { "type": "name", "properties": { "name": "urn:ogc:def:crs:OGC:1.3:CRS84" } },
"features": [
{ "type": "Feature", "properties": { "fid": 1, "tour": "1" }, "geometry": { "type": "LineString", "coordinates": [ [ 21.220784863521121, 45.749605611403283 ], [ 21.223108619424124, 45.748962870408839 ], [ 21.224575387334532, 45.748567337489177 ], [ 21.225663102863596, 45.748501415335902 ], [ 21.228909768912473, 45.748204765646157 ], [ 21.231167602662197, 45.748682701257408 ], [ 21.231467074430718, 45.748213844504555 ] ] } }
]
}
