{
"type": "FeatureCollection",
"name": "tour2",
"crs": { "type": "name", "properties": { "name": "urn:ogc:def:crs:OGC:1.3:CRS84" } },
"features": [
{ "type": "Feature", "properties": { "fid": 2, "tour": "2" }, "geometry": { "type": "LineString", "coordinates": [ [ 21.228251983526548, 45.758124583438487 ], [ 21.227898028564621, 45.753719810578957 ], [ 21.225931612109477, 45.753995108882677 ], [ 21.224673105578184, 45.751438767490988 ], [ 21.225695642134859, 45.749000411086612 ], [ 21.225538328818448, 45.747899217871733 ], [ 21.229471161728739, 45.747859889542625 ], [ 21.231909518133119, 45.747977874529937 ] ] } }
]
}
